{"fetched_at":"2026-07-21T17:53:47.972Z","source":"https://celestrak.org/NORAD/elements/gp.php?NAME=SENTINEL&FORMAT=JSON","constellation":"sentinel-3","records":[{"OBJECT_NAME":"SENTINEL-3A","OBJECT_ID":"2016-011A","EPOCH":"2026-07-21T05:30:31.477536","CLASSIFICATION_TYPE":"U","MEAN_MOTION":14.26740922,"ECCENTRICITY":0.00013057,"INCLINATION":98.6232,"RA_OF_ASC_NODE":269.1213,"ARG_OF_PERICENTER":88.8236,"MEAN_ANOMALY":271.3094,"EPHEMERIS_TYPE":0,"NORAD_CAT_ID":41335,"ELEMENT_SET_NO":999,"REV_AT_EPOCH":54291,"BSTAR":0.000039132581,"MEAN_MOTION_DOT":5.1e-7,"MEAN_MOTION_DDOT":0},{"OBJECT_NAME":"SENTINEL-3B","OBJECT_ID":"2018-039A","EPOCH":"2026-07-21T03:10:52.929120","CLASSIFICATION_TYPE":"U","MEAN_MOTION":14.26737513,"ECCENTRICITY":0.00012761,"INCLINATION":98.6231,"RA_OF_ASC_NODE":269.1747,"ARG_OF_PERICENTER":118.4433,"MEAN_ANOMALY":241.6877,"EPHEMERIS_TYPE":0,"NORAD_CAT_ID":43437,"ELEMENT_SET_NO":999,"REV_AT_EPOCH":42896,"BSTAR":0.000040727506,"MEAN_MOTION_DOT":5.5e-7,"MEAN_MOTION_DDOT":0}]}
